[{"OBJECT_NAME":"STARLINK-5717","OBJECT_ID":"2023-020BB","EPOCH":"2026-03-09T02:34:56.232192","MEAN_MOTION":15.02578274,"ECCENTRICITY":0.00015161,"INCLINATION":43.0055,"RA_OF_ASC_NODE":354.6667,"ARG_OF_PERICENTER":275.5402,"MEAN_ANOMALY":84.5267,"EPHEMERIS_TYPE":0,"CLASSIFICATION_TYPE":"U","NORAD_CAT_ID":55618,"ELEMENT_SET_NO":999,"REV_AT_EPOCH":16898,"BSTAR":-0.00062012965,"MEAN_MOTION_DOT":-8.58e-5,"MEAN_MOTION_DDOT":0},{"OBJECT_NAME":"CZ-6A DEB","OBJECT_ID":"2024-140LD","EPOCH":"2026-03-09T20:28:55.674624","MEAN_MOTION":14.66900982,"ECCENTRICITY":0.01590307,"INCLINATION":88.6669,"RA_OF_ASC_NODE":257.8237,"ARG_OF_PERICENTER":143.6628,"MEAN_ANOMALY":217.5514,"EPHEMERIS_TYPE":0,"CLASSIFICATION_TYPE":"U","NORAD_CAT_ID":60898,"ELEMENT_SET_NO":999,"REV_AT_EPOCH":8295,"BSTAR":0.0020754891,"MEAN_MOTION_DOT":0.00014066,"MEAN_MOTION_DDOT":0}]
